First least square run :: 
57065.6831064  2.96889134393e-06  1.80101480919e-10  0.66  94.0756441597  
Convergence moindre carre incomplete -> relance
Second least square run :: 
56712.7544083  0.0651660763697  1.86510063928e-08  0.66  84.1227254545  
 
 Sommes des résidus par camera : 
              camera               sigma                   s                   n                 Sum        Sum expected                  s'
              FRAU03       0.78265864724      0.194790909441                  10       19.9513055867       6.55750921646       1.15267106879
              FRLI01       2.41898039207      0.336137108113                   8       64.1714198679       7.06336212348       6.94429747077
 Sum Expected Total :: 13.6208713399
 
 Sommes des résidus par camera 2 : 
              camera               sigma                   s                   n                 Sum        Sum expected                  s'
              FRAU03       0.78265864724       1.16901415357                  10      0.980469887142       1.38610447678                   0
              FRLI01       2.41898039207       6.95242803041                   8       1.39758466877       1.10434632233       3.79322131214
 Sum Expected Total :: 2.49045079912
 
Parametre  de la meilleure solution par moindre carré :: 
 V  = 56956.9501081 m/s
 A  = 7.72513107904e-05 m²/kg
 B  = 2.1986758977e-11 m²/J
 mu = 0.66
 
S_min : 2.37805455591
 
 
 Estimation Parametre par Moyenne pondérée (si cette estimation est très différente de la précédente, cela peut être le signe d'un problème) :: 
 V  = 57560.2327578 m/s
 A  = 1.37216279332 m²/kg
 B  = 9.86340374702e-09 m²/J
 
 Parametre Maria :: 
 gamma = 34.4712985651°
 Alpha = 0.630328986122
 Beta  = 156.963159382
 
Final Mass : 3.20032564e-199 %
 
         rho(Kg/m³)               Re(m)              Me(Kg)               Rf(m)              Mf(Kg)
                1500       6.47238208497        1703618.3517    9.5381073075e-67   5.4521334917e-195
                2500       3.88342925098       613302.606611    5.7228643845e-67  1.96276805701e-195
                3500       2.77387803642       312909.493169   4.08776027464e-67  1.00141227399e-195
                4500       2.15746069499       189290.927966    3.1793691025e-67  6.05792610189e-196
                5500       1.76519511408       126715.414589   2.60130199296e-67  4.05530590292e-196
                6500       1.49362663499       90725.2376643   2.20110168635e-67  2.90350304292e-196
 
Matrix of Covariance : 
    |                   Ve |                    A |                    B | 
Ve  |        713776.282516 |        1273.47064822 |    6.16580796505e-06 | 
A   |        1273.47064822 |        2.90678994015 |    1.36712060209e-08 | 
B   |    6.16580796505e-06 |    1.36712060209e-08 |    1.35920435077e-16 | 
 
 
 Time shift :: 
FRAU03 : -0.0488769969113 s
FRLI01 : 0.0488769969113 s
 
 
 Transposed Jacobian Matrix :: 
       |             Ve(m/s) |                    A |                    B | 
dx1(m) |      0.433327704389 |   -4.56861971033e-08 |    1.03731273622e-13 | 
dx2(m) |      0.106271551207 |   -1.96593177611e-08 |   -9.06922606237e-16 | 
dx3(m) |    -0.0794074188055 |   -4.60579298706e-08 |    2.01236963783e-14 | 
dx4(m) |    -0.0221828749929 |   -1.01984466797e-08 |   -8.16182094705e-16 | 
 
 Propagation des Variances :: 
        |              Ve(m/s) |                    A |                    B | 
Ve(m/s) |        6024.04998108 |   -0.000501622829992 |    1.25051989171e-09 | 
A       |   -0.000501622829992 |    1.32277666047e-10 |   -1.64915897713e-16 | 
B       |    1.25051989171e-09 |   -1.64915897713e-16 |    3.01025584848e-22 | 
 
 Variances Totales :: 
        |              Ve(m/s) |                    A |                    B | 
Ve(m/s) |        719800.332497 |         1273.4701466 |    6.16705848494e-06 | 
A       |         1273.4701466 |        2.90678994028 |     1.3671205856e-08 | 
B       |    6.16705848494e-06 |     1.3671205856e-08 |    1.35920736102e-16 | 
 
sigma Ve : 848.410474061 m/s
sigma A  : 1.70493106614 m^2/Kg
sigma B  : 1.16585048828e-08 m^2/J
 
sigma Me (relatif) : 6620979.17315 %
sigma Mf (relatif) : 1019187896.09 %
 
A/B : 3.5135378921 MJ/Kg
sigma A/B : 77565.9150001 MJ/Kg
 
    Remarque : A/B decrit la solidité du bolide. Il doit être entre 50 et 8000 MJ/Kg 
 
 
 
 
------------------------------------------------------------------------ 
------------------------------------------------------------------------ 
------------------------------------------------------------------------ 
 
 
  ORBITE :: 
Perifocal Distance              :: 0.748001475836 AU
Eccentricity                    :: 0.985881359782
Inclination                     :: 99.9011115449 °
Longitude of the ascending node :: 281.959434409 °
Argument of periapsis           :: 121.199960409 °
Mean anomaly at epoch           :: 0.0808729410343 °
Epoch                           :: 2020-01-01T14:42:34.931
Semi-major axe                  :: 52.9797108121 AU
 
Moon near encounter             :: 407900.39572km   ( 234.776329988 moon radius )
Tisserand_J                     :: -0.0855471515271
Tisserand_S                     :: -0.0037458367678
Tisserand_U                     :: 0.178442775666
Tisserand_N                     :: 0.383823285171
 
 
  Transposed Jacobian Matrix  :: 
        |        Per dist(AU) |                  ecc |                  Inc |                 Long |                  Arg |              Mean an |                Epoch |                    a | 
dx1(km) |     0.0300867437259 |       0.022285809419 |      -0.891755704583 |   -1.09233591842e-05 |          4.556389325 |     -0.0492600515531 |       -106.092418909 |       -148.249956899 |  
dx2(km) |   -0.00594353974745 |      0.0566494828216 |       -1.84094466313 |   -2.33580416198e-05 |      0.0901767578716 |       0.337347712409 |        40.7190637589 |       -70.4272357298 |  
dx3(km) |    -0.0318270639068 |     -0.0189109058871 |       0.907802306473 |    1.82276082484e-05 |        -4.6205111392 |       0.243886627856 |       -131.962303877 |       -31.2968693452 |  
dx4(km) |    0.00656012220138 |     -0.0560368246597 |         1.8484634155 |    3.09720027684e-05 |     -0.0522225427574 |       0.823987239552 |        134.300948381 |       -42.2241467324 |  
V(km/s) |    0.00203414757298 |      0.0576041868999 |       0.516729463367 |   -0.000368384646848 |        1.22958240426 |      -0.502873015037 |         14692.675209 |        207.822618612 |  
 
 Variances :: 
             |        Per dist(AU) |                  ecc |                  Inc |                 Long |                  Arg |              Mean an |             Epoch(s) |                    a | 
Per dist(AU) |     5.344330863e-05 |    0.000139716368297 |    -0.00144517734085 |   -5.74395273802e-07 |     0.00963519019513 |    -0.00108917392748 |        21.5264172261 |       0.207729477856 |  
ecc          |   0.000139716368297 |     0.00246137536181 |      0.0186143151882 |   -1.53180539278e-05 |      0.0597906341506 |     -0.0212587484909 |         609.19600275 |        8.48732053381 |  
Inc          |   -0.00144517734085 |      0.0186143151882 |       0.301314620875 |   -0.000135306706389 |       0.108807014432 |      -0.170194079354 |        5464.86218346 |        81.9535462209 |  
Long         |  -5.74395273802e-07 |   -1.53180539278e-05 |   -0.000135306706389 |    9.77100255761e-08 |   -0.000331550805104 |    0.000133664512289 |       -3.89598275737 |     -0.0550582653746 |  
Arg          |    0.00963519019513 |      0.0597906341506 |       0.108807014432 |   -0.000331550805104 |        2.30844200506 |      -0.499577461836 |        13005.1697133 |        168.251654805 |  
Mean an      |   -0.00108917392748 |     -0.0212587484909 |      -0.170194079354 |    0.000133664512289 |      -0.499577461836 |       0.187785093351 |       -5319.47037622 |        -75.813242674 |  
Epoch(s)     |       21.5264172261 |         609.19600275 |        5464.86218346 |       -3.89598275737 |        13005.1697133 |       -5319.47037622 |        155387237.447 |        2198425.02103 |  
a            |      0.207729477856 |        8.48732053381 |        81.9535462209 |     -0.0550582653746 |        168.251654805 |        -75.813242674 |        2198425.02103 |        31870.6412077 |  
 
     Ecarts types :: 
Per dist(AU) :    0.00731049304972 
ecc          :     0.0496122501184 
Inc          :       0.54892132485 
Long         :    0.00031258602908 
Arg          :        1.5193557862 
Mean an      :      0.433341774297 
Epoch(s)     :       12465.4417269 
a            :       178.523503236 
